{"fetched_at":"2026-07-17T06:38:20.138Z","source":"https://celestrak.org/NORAD/elements/gp.php?NAME=ICEYE&FORMAT=JSON","constellation":"iceye","records":[{"OBJECT_NAME":"ICEYE-X53","OBJECT_ID":"2025-135BJ","EPOCH":"2026-07-16T19:48:16.000416","CLASSIFICATION_TYPE":"U","MEAN_MOTION":15.00896998,"ECCENTRICITY":0.0001996,"INCLINATION":97.736,"RA_OF_ASC_NODE":314.4762,"ARG_OF_PERICENTER":165.1886,"MEAN_ANOMALY":194.9397,"EPHEMERIS_TYPE":0,"NORAD_CAT_ID":64584,"ELEMENT_SET_NO":999,"REV_AT_EPOCH":5852,"BSTAR":0.00011076,"MEAN_MOTION_DOT":0.0000135,"MEAN_MOTION_DDOT":0},{"OBJECT_NAME":"ICEYE-X65","OBJECT_ID":"2025-248H","EPOCH":"2026-07-16T10:22:03.000288","CLASSIFICATION_TYPE":"U","MEAN_MOTION":15.07932171,"ECCENTRICITY":0.0005646,"INCLINATION":45.4058,"RA_OF_ASC_NODE":340.3956,"ARG_OF_PERICENTER":205.8452,"MEAN_ANOMALY":154.2149,"EPHEMERIS_TYPE":0,"NORAD_CAT_ID":66300,"ELEMENT_SET_NO":999,"REV_AT_EPOCH":3993,"BSTAR":0.00010026,"MEAN_MOTION_DOT":0.00001315,"MEAN_MOTION_DDOT":0},{"OBJECT_NAME":"ICEYE-X66","OBJECT_ID":"2025-248J","EPOCH":"2026-07-16T10:17:15.340128","CLASSIFICATION_TYPE":"U","MEAN_MOTION":15.09180943,"ECCENTRICITY":0.0005307,"INCLINATION":45.4025,"RA_OF_ASC_NODE":339.4811,"ARG_OF_PERICENTER":201.7259,"MEAN_ANOMALY":158.3399,"EPHEMERIS_TYPE":0,"NORAD_CAT_ID":66301,"ELEMENT_SET_NO":999,"REV_AT_EPOCH":3992,"BSTAR":0.000099234,"MEAN_MOTION_DOT":0.0000135,"MEAN_MOTION_DDOT":0},{"OBJECT_NAME":"ICEYE-X67","OBJECT_ID":"2025-248K","EPOCH":"2026-07-16T10:52:49.338048","CLASSIFICATION_TYPE":"U","MEAN_MOTION":15.09163646,"ECCENTRICITY":0.0006804,"INCLINATION":45.4062,"RA_OF_ASC_NODE":338.9301,"ARG_OF_PERICENTER":201.9583,"MEAN_ANOMALY":158.1008,"EPHEMERIS_TYPE":0,"NORAD_CAT_ID":66302,"ELEMENT_SET_NO":999,"REV_AT_EPOCH":3994,"BSTAR":0.00011777,"MEAN_MOTION_DOT":0.00001648,"MEAN_MOTION_DDOT":0},{"OBJECT_NAME":"ICEYE-X58","OBJECT_ID":"2025-276CP","EPOCH":"2026-07-16T20:41:40.910784","CLASSIFICATION_TYPE":"U","MEAN_MOTION":15.17311704,"ECCENTRICITY":0.00023,"INCLINATION":97.4197,"RA_OF_ASC_NODE":270.7066,"ARG_OF_PERICENTER":205.0507,"MEAN_ANOMALY":155.0615,"EPHEMERIS_TYPE":0,"NORAD_CAT_ID":66751,"ELEMENT_SET_NO":999,"REV_AT_EPOCH":3491,"BSTAR":0.000072482,"MEAN_MOTION_DOT":0.00001379,"MEAN_MOTION_DDOT":0},{"OBJECT_NAME":"ICEYE-X59","OBJECT_ID":"2025-276CQ","EPOCH":"2026-07-16T03:30:07.582176","CLASSIFICATION_TYPE":"U","MEAN_MOTION":15.00758187,"ECCENTRICITY":0.00010994,"INCLINATION":97.4391,"RA_OF_ASC_NODE":267.2057,"ARG_OF_PERICENTER":139.2495,"MEAN_ANOMALY":220.8812,"EPHEMERIS_TYPE":0,"NORAD_CAT_ID":66752,"ELEMENT_SET_NO":999,"REV_AT_EPOCH":3461,"BSTAR":0.00021152707,"MEAN_MOTION_DOT":0.00002627,"MEAN_MOTION_DDOT":0},{"OBJECT_NAME":"ICEYE-X60","OBJECT_ID":"2025-276CR","EPOCH":"2026-07-16T04:38:00.420288","CLASSIFICATION_TYPE":"U","MEAN_MOTION":15.10856389,"ECCENTRICITY":0.0000732,"INCLINATION":97.4136,"RA_OF_ASC_NODE":269.0035,"ARG_OF_PERICENTER":149.8638,"MEAN_ANOMALY":210.2635,"EPHEMERIS_TYPE":0,"NORAD_CAT_ID":66753,"ELEMENT_SET_NO":999,"REV_AT_EPOCH":3474,"BSTAR":0.00013552,"MEAN_MOTION_DOT":0.00002192,"MEAN_MOTION_DDOT":0},{"OBJECT_NAME":"ICEYE-X61","OBJECT_ID":"2025-276CS","EPOCH":"2026-07-16T03:42:04.906944","CLASSIFICATION_TYPE":"U","MEAN_MOTION":15.18611689,"ECCENTRICITY":0.0002168,"INCLINATION":97.4194,"RA_OF_ASC_NODE":270.1044,"ARG_OF_PERICENTER":211.0636,"MEAN_ANOMALY":149.047,"EPHEMERIS_TYPE":0,"NORAD_CAT_ID":66754,"ELEMENT_SET_NO":999,"REV_AT_EPOCH":3481,"BSTAR":0.000076983,"MEAN_MOTION_DOT":0.00001526,"MEAN_MOTION_DDOT":0},{"OBJECT_NAME":"ICEYE-X62","OBJECT_ID":"2025-276CT","EPOCH":"2026-07-16T11:37:21.226080","CLASSIFICATION_TYPE":"U","MEAN_MOTION":15.10151436,"ECCENTRICITY":0.0000901,"INCLINATION":97.4194,"RA_OF_ASC_NODE":268.7751,"ARG_OF_PERICENTER":230.7044,"MEAN_ANOMALY":129.4106,"EPHEMERIS_TYPE":0,"NORAD_CAT_ID":66755,"ELEMENT_SET_NO":999,"REV_AT_EPOCH":3475,"BSTAR":0.00016255,"MEAN_MOTION_DOT":0.0000259,"MEAN_MOTION_DDOT":0},{"OBJECT_NAME":"ICEYE-X63","OBJECT_ID":"2026-004K","EPOCH":"2026-07-16T14:18:26.102880","CLASSIFICATION_TYPE":"U","MEAN_MOTION":14.88350475,"ECCENTRICITY":0.000535,"INCLINATION":97.8014,"RA_OF_ASC_NODE":195.7775,"ARG_OF_PERICENTER":48.2974,"MEAN_ANOMALY":311.8699,"EPHEMERIS_TYPE":0,"NORAD_CAT_ID":67372,"ELEMENT_SET_NO":999,"REV_AT_EPOCH":2767,"BSTAR":0.000052551,"MEAN_MOTION_DOT":0.00000432,"MEAN_MOTION_DDOT":0},{"OBJECT_NAME":"ICEYE-X64","OBJECT_ID":"2026-004L","EPOCH":"2026-07-16T13:52:13.933056","CLASSIFICATION_TYPE":"U","MEAN_MOTION":14.87989153,"ECCENTRICITY":0.0007181,"INCLINATION":97.8028,"RA_OF_ASC_NODE":195.6783,"ARG_OF_PERICENTER":50.4837,"MEAN_ANOMALY":309.7013,"EPHEMERIS_TYPE":0,"NORAD_CAT_ID":67373,"ELEMENT_SET_NO":999,"REV_AT_EPOCH":2766,"BSTAR":0.00007037,"MEAN_MOTION_DOT":0.00000591,"MEAN_MOTION_DDOT":0},{"OBJECT_NAME":"ICEYE-X71","OBJECT_ID":"2026-067CG","EPOCH":"2026-07-14T08:41:36.635712","CLASSIFICATION_TYPE":"U","MEAN_MOTION":14.91790708,"ECCENTRICITY":0.00010685,"INCLINATION":97.7625,"RA_OF_ASC_NODE":153.1825,"ARG_OF_PERICENTER":349.9955,"MEAN_ANOMALY":10.1242,"EPHEMERIS_TYPE":0,"NORAD_CAT_ID":68494,"ELEMENT_SET_NO":999,"REV_AT_EPOCH":1577,"BSTAR":0.00015178176,"MEAN_MOTION_DOT":0.00001475,"MEAN_MOTION_DDOT":0},{"OBJECT_NAME":"ICEYE-X73","OBJECT_ID":"2026-067CJ","EPOCH":"2026-07-16T16:04:41.909664","CLASSIFICATION_TYPE":"U","MEAN_MOTION":14.92351986,"ECCENTRICITY":0.0001672,"INCLINATION":97.7623,"RA_OF_ASC_NODE":155.5424,"ARG_OF_PERICENTER":146.496,"MEAN_ANOMALY":213.6365,"EPHEMERIS_TYPE":0,"NORAD_CAT_ID":68496,"ELEMENT_SET_NO":999,"REV_AT_EPOCH":1612,"BSTAR":0.00010009,"MEAN_MOTION_DOT":0.00000968,"MEAN_MOTION_DDOT":0},{"OBJECT_NAME":"ICEYE-X75","OBJECT_ID":"2026-067CK","EPOCH":"2026-07-16T21:01:05.712384","CLASSIFICATION_TYPE":"U","MEAN_MOTION":14.92175312,"ECCENTRICITY":0.0001607,"INCLINATION":97.7607,"RA_OF_ASC_NODE":155.7116,"ARG_OF_PERICENTER":142.3326,"MEAN_ANOMALY":217.8006,"EPHEMERIS_TYPE":0,"NORAD_CAT_ID":68497,"ELEMENT_SET_NO":999,"REV_AT_EPOCH":1615,"BSTAR":0.00004273,"MEAN_MOTION_DOT":0.00000379,"MEAN_MOTION_DDOT":0},{"OBJECT_NAME":"ICEYE-X74","OBJECT_ID":"2026-067CN","EPOCH":"2026-07-16T10:34:35.036256","CLASSIFICATION_TYPE":"U","MEAN_MOTION":14.91796391,"ECCENTRICITY":0.0000716,"INCLINATION":97.7633,"RA_OF_ASC_NODE":155.2398,"ARG_OF_PERICENTER":336.4098,"MEAN_ANOMALY":23.7087,"EPHEMERIS_TYPE":0,"NORAD_CAT_ID":68500,"ELEMENT_SET_NO":999,"REV_AT_EPOCH":1608,"BSTAR":0.00013497,"MEAN_MOTION_DOT":0.00001305,"MEAN_MOTION_DDOT":0},{"OBJECT_NAME":"ICEYE-X76","OBJECT_ID":"2026-067CQ","EPOCH":"2026-07-16T20:08:15.692064","CLASSIFICATION_TYPE":"U","MEAN_MOTION":14.91752847,"ECCENTRICITY":0.0000458,"INCLINATION":97.764,"RA_OF_ASC_NODE":155.6505,"ARG_OF_PERICENTER":297.0482,"MEAN_ANOMALY":63.069,"EPHEMERIS_TYPE":0,"NORAD_CAT_ID":68502,"ELEMENT_SET_NO":999,"REV_AT_EPOCH":1614,"BSTAR":0.000065248,"MEAN_MOTION_DOT":0.00000602,"MEAN_MOTION_DDOT":0}]}
