ICEYE-X53               
1 64584U 25135BJ  26197.82518519  .00001350  00000+0  11076-3 0  9993
2 64584  97.7360 314.4762 0001996 165.1886 194.9397 15.00896998 58525
ICEYE-X65               
1 66300U 25248H   26197.43197917  .00001315  00000+0  10026-3 0  9993
2 66300  45.4058 340.3956 0005646 205.8452 154.2149 15.07932171 39936
ICEYE-X66               
1 66301U 25248J   26197.42864977  .00001350  00000+0  99234-4 0  9998
2 66301  45.4025 339.4811 0005307 201.7259 158.3399 15.09180943 39929
ICEYE-X67               
1 66302U 25248K   26197.45334882  .00001648  00000+0  11777-3 0  9994
2 66302  45.4062 338.9301 0006804 201.9583 158.1008 15.09163646 39942
ICEYE-X58               
1 66751U 25276CP  26197.86227906  .00001379  00000+0  72482-4 0  9998
2 66751  97.4197 270.7066 0002300 205.0507 155.0615 15.17311704 34916
ICEYE-X59               
1 66752U 25276CQ  26197.14592109  .00002627  00000+0  21153-3 0  9995
2 66752  97.4391 267.2057 0001099 139.2495 220.8812 15.00758187 34611
ICEYE-X60               
1 66753U 25276CR  26197.19306042  .00002192  00000+0  13552-3 0  9991
2 66753  97.4136 269.0035 0000732 149.8638 210.2635 15.10856389 34748
ICEYE-X61               
1 66754U 25276CS  26197.15422346  .00001526  00000+0  76983-4 0  9992
2 66754  97.4194 270.1044 0002168 211.0636 149.0470 15.18611689 34815
ICEYE-X62               
1 66755U 25276CT  26197.48427345  .00002590  00000+0  16255-3 0  9990
2 66755  97.4194 268.7751 0000901 230.7044 129.4106 15.10151436 34750
ICEYE-X63               
1 67372U 26004K   26197.59613545  .00000432  00000+0  52551-4 0  9990
2 67372  97.8014 195.7775 0005350  48.2974 311.8699 14.88350475 27678
ICEYE-X64               
1 67373U 26004L   26197.57793904  .00000591  00000+0  70370-4 0  9992
2 67373  97.8028 195.6783 0007181  50.4837 309.7013 14.87989153 27664
ICEYE-X71               
1 68494U 26067CG  26195.36222958  .00001475  00000+0  15178-3 0  9993
2 68494  97.7625 153.1825 0001068 349.9955  10.1242 14.91790708 15779
ICEYE-X73               
1 68496U 26067CJ  26197.66992951  .00000968  00000+0  10009-3 0  9991
2 68496  97.7623 155.5424 0001672 146.4960 213.6365 14.92351986 16125
ICEYE-X75               
1 68497U 26067CK  26197.87576056  .00000379  00000+0  42730-4 0  9992
2 68497  97.7607 155.7116 0001607 142.3326 217.8006 14.92175312 16155
ICEYE-X74               
1 68500U 26067CN  26197.44068329  .00001305  00000+0  13497-3 0  9996
2 68500  97.7633 155.2398 0000716 336.4098  23.7087 14.91796391 16088
ICEYE-X76               
1 68502U 26067CQ  26197.83907051  .00000602  00000+0  65248-4 0  9996
2 68502  97.7640 155.6505 0000458 297.0482  63.0690 14.91752847 16146
